start=new Date('2021-11-19T00:00:00.000Z').valueOf();
sats=[{"CLASSIFICATION_TYPE":"U","TLE_LINE2":"2 47771  53.0567  64.2480 0001225  70.9408 289.1713 15.06391674 40216","RCS_SIZE":"LARGE","MEAN_ELEMENT_THEORY":"SGP4","MEAN_ANOMALY":"289.1713","PERIAPSIS":"546.391","RA_OF_ASC_NODE":"64.2480","MEAN_MOTION":"15.06391674","TLE_LINE1":"1 47771U 21017BB  21322.54310728  .00000685  00000-0  64910-4 0  9990","REF_FRAME":"TEME","PERIOD":"95.593","SEMIMAJOR_AXIS":"6925.374","OBJECT_ID":"2021-017BB","INCLINATION":"53.0567","ELEMENT_SET_NO":"999","OBJECT_NAME":"STARLINK-2194","ECCENTRICITY":"0.00012250","BSTAR":"0.00006491000000","CENTER_NAME":"EARTH","MEAN_MOTION_DDOT":"0.0000000000000","LAUNCH_DATE":"2021-03-04","EPHEMERIS_TYPE":"0","ARG_OF_PERICENTER":"70.9408","REV_AT_EPOCH":"4021","EPOCH":"2021-11-18T13:02:04.468992","GP_ID":"190015584","NORAD_CAT_ID":"47771","APOAPSIS":"548.087","DECAY_DATE":null,"MEAN_MOTION_DOT":"0.00000685","COUNTRY_CODE":"US","SITE":"AFETR","TIME_SYSTEM":"UTC","FILE":"3218565","OBJECT_TYPE":"PAYLOAD"},{"OBJECT_NAME":"STARLINK-2195","ECCENTRICITY":"0.00014230","BSTAR":"0.00000308550000","CENTER_NAME":"EARTH","MEAN_MOTION_DDOT":"0.0000000000000","LAUNCH_DATE":"2021-03-04","EPHEMERIS_TYPE":"0","ARG_OF_PERICENTER":"88.8165","MEAN_MOTION":"15.06397490","RA_OF_ASC_NODE":"78.9974","PERIOD":"95.592","TLE_LINE1":"1 47772U 21017BC  21322.59884990 -.00000235  00000-0  30855-5 0  9997","REF_FRAME":"TEME","SEMIMAJOR_AXIS":"6925.356","OBJECT_ID":"2021-017BC","INCLINATION":"53.0555","ELEMENT_SET_NO":"999","MEAN_ELEMENT_THEORY":"SGP4","MEAN_ANOMALY":"271.2987","PERIAPSIS":"546.236","CLASSIFICATION_TYPE":"U","TLE_LINE2":"2 47772  53.0555  78.9974 0001423  88.8165 271.2987 15.06397490 40006","RCS_SIZE":"LARGE","SITE":"AFETR","TIME_SYSTEM":"UTC","FILE":"3218492","OBJECT_TYPE":"PAYLOAD","MEAN_MOTION_DOT":"-0.00000235","COUNTRY_CODE":"US","EPOCH":"2021-11-18T14:22:20.631360","GP_ID":"190013704","NORAD_CAT_ID":"47772","APOAPSIS":"548.207","DECAY_DATE":null,"REV_AT_EPOCH":"4000"},{"REV_AT_EPOCH":"4065","APOAPSIS":"548.037","DECAY_DATE":null,"NORAD_CAT_ID":"47773","GP_ID":"190038736","EPOCH":"2021-11-18T17:28:06.614112","COUNTRY_CODE":"US","MEAN_MOTION_DOT":"0.00001261","OBJECT_TYPE":"PAYLOAD","FILE":"3218669","TIME_SYSTEM":"UTC","SITE":"AFETR","RCS_SIZE":"LARGE","TLE_LINE2":"2 47773  53.0557  78.4240 0001211  84.1364 275.9763 15.06404888 40659","CLASSIFICATION_TYPE":"U","PERIAPSIS":"546.360","MEAN_ANOMALY":"275.9763","MEAN_ELEMENT_THEORY":"SGP4","ELEMENT_SET_NO":"999","OBJECT_ID":"2021-017BD","INCLINATION":"53.0557","SEMIMAJOR_AXIS":"6925.334","PERIOD":"95.592","TLE_LINE1":"1 47773U 21017BD  21322.72785433  .00001261  00000-0  10352-3 0  9992","REF_FRAME":"TEME","RA_OF_ASC_NODE":"78.4240","MEAN_MOTION":"15.06404888","ARG_OF_PERICENTER":"84.1364","EPHEMERIS_TYPE":"0","LAUNCH_DATE":"2021-03-04","MEAN_MOTION_DDOT":"0.0000000000000","CENTER_NAME":"EARTH","BSTAR":"0.00010352000000","OBJECT_NAME":"STARLINK-2196","ECCENTRICITY":"0.00012110"},{"NORAD_CAT_ID":"47774","GP_ID":"190039987","APOAPSIS":"548.020","DECAY_DATE":null,"EPOCH":"2021-11-18T17:22:48.446112","REV_AT_EPOCH":"4066","OBJECT_TYPE":"PAYLOAD","FILE":"3218669","SITE":"AFETR","TIME_SYSTEM":"UTC","COUNTRY_CODE":"US","MEAN_MOTION_DOT":"0.00000872","MEAN_ANOMALY":"278.6917","PERIAPSIS":"546.405","MEAN_ELEMENT_THEORY":"SGP4","RCS_SIZE":"LARGE","TLE_LINE2":"2 47774  53.0559  78.4372 0001166  81.4204 278.6917 15.06400342 40663","CLASSIFICATION_TYPE":"U","LAUNCH_DATE":"2021-03-04","EPHEMERIS_TYPE":"0","ARG_OF_PERICENTER":"81.4204","BSTAR":"0.00007739800000","ECCENTRICITY":"0.00011660","OBJECT_NAME":"STARLINK-2197","MEAN_MOTION_DDOT":"0.0000000000000","CENTER_NAME":"EARTH","INCLINATION":"53.0559","OBJECT_ID":"2021-017BE","ELEMENT_SET_NO":"999","RA_OF_ASC_NODE":"78.4372","MEAN_MOTION":"15.06400342","SEMIMAJOR_AXIS":"6925.348","REF_FRAME":"TEME","TLE_LINE1":"1 47774U 21017BE  21322.72417183  .00000872  00000-0  77398-4 0  9998","PERIOD":"95.592"},{"EPOCH":"2021-11-18T19:14:16.880064","APOAPSIS":"548.193","DECAY_DATE":null,"NORAD_CAT_ID":"47775","GP_ID":"190040238","REV_AT_EPOCH":"4072","TIME_SYSTEM":"UTC","SITE":"AFETR","OBJECT_TYPE":"PAYLOAD","FILE":"3218669","MEAN_MOTION_DOT":"-0.00000408","COUNTRY_CODE":"US","MEAN_ELEMENT_THEORY":"SGP4","PERIAPSIS":"546.302","MEAN_ANOMALY":"269.2401","CLASSIFICATION_TYPE":"U","RCS_SIZE":"LARGE","TLE_LINE2":"2 47775  53.0563  78.1108 0001365  90.8745 269.2401 15.06388899 40721","MEAN_MOTION_DDOT":"0.0000000000000","CENTER_NAME":"EARTH","BSTAR":"-0.00000851650000","ECCENTRICITY":"0.00013650","OBJECT_NAME":"STARLINK-2198","ARG_OF_PERICENTER":"90.8745","LAUNCH_DATE":"2021-03-04","EPHEMERIS_TYPE":"0","SEMIMAJOR_AXIS":"6925.383","PERIOD":"95.593","TLE_LINE1":"1 47775U 21017BF  21322.80158426 -.00000408  00000-0 -85165-5 0  9999","REF_FRAME":"TEME","RA_OF_ASC_NODE":"78.1108","MEAN_MOTION":"15.06388899","ELEMENT_SET_NO":"999","INCLINATION":"53.0563","OBJECT_ID":"2021-017BF"},{"GP_ID":"190038986","NORAD_CAT_ID":"47776","APOAPSIS":"548.193","DECAY_DATE":null,"EPOCH":"2021-11-18T18:17:13.194528","REV_AT_EPOCH":"4082","FILE":"3218669","OBJECT_TYPE":"PAYLOAD","SITE":"AFETR","TIME_SYSTEM":"UTC","COUNTRY_CODE":"US","MEAN_MOTION_DOT":"-0.00000389","PERIAPSIS":"546.305","MEAN_ANOMALY":"270.9677","MEAN_ELEMENT_THEORY":"SGP4","TLE_LINE2":"2 47776  53.0569  68.2820 0001363  89.1468 270.9677 15.06388386 40826","RCS_SIZE":"LARGE","CLASSIFICATION_TYPE":"U","LAUNCH_DATE":"2021-03-04","EPHEMERIS_TYPE":"0","ARG_OF_PERICENTER":"89.1468","ECCENTRICITY":"0.00013630","OBJECT_NAME":"STARLINK-2209","BSTAR":"-0.00000719920000","CENTER_NAME":"EARTH","MEAN_MOTION_DDOT":"0.0000000000000","INCLINATION":"53.0569","OBJECT_ID":"2021-017BG","ELEMENT_SET_NO":"999","MEAN_MOTION":"15.06388386","RA_OF_ASC_NODE":"68.2820","TLE_LINE1":"1 47776U 21017BG  21322.76195827 -.00000389  00000-0 -71992-5 0  9992","REF_FRAME":"TEME","PERIOD":"95.593","SEMIMAJOR_AXIS":"6925.384"},{"CLASSIFICATION_TYPE":"U","RCS_SIZE":"LARGE","TLE_LINE2":"2 47777  53.0574  68.5695 0001055  90.5813 269.5296 15.06395162 40814","MEAN_ELEMENT_THEORY":"SGP4","MEAN_ANOMALY":"269.5296","PERIAPSIS":"546.498","SEMIMAJOR_AXIS":"6925.363","REF_FRAME":"TEME","TLE_LINE1":"1 47777U 21017BH  21322.69929574  .00000189  00000-0  31586-4 0  9999","PERIOD":"95.592","RA_OF_ASC_NODE":"68.5695","MEAN_MOTION":"15.06395162","ELEMENT_SET_NO":"999","OBJECT_ID":"2021-017BH","INCLINATION":"53.0574","MEAN_MOTION_DDOT":"0.0000000000000","CENTER_NAME":"EARTH","BSTAR":"0.00003158600000","ECCENTRICITY":"0.00010550","OBJECT_NAME":"STARLINK-2210","ARG_OF_PERICENTER":"90.5813","LAUNCH_DATE":"2021-03-04","EPHEMERIS_TYPE":"0","REV_AT_EPOCH":"4081","EPOCH":"2021-11-18T16:46:59.151936","DECAY_DATE":null,"APOAPSIS":"547.959","NORAD_CAT_ID":"47777","GP_ID":"190039236","MEAN_MOTION_DOT":"0.00000189","COUNTRY_CODE":"US","TIME_SYSTEM":"UTC","SITE":"AFETR","OBJECT_TYPE":"PAYLOAD","FILE":"3218669"},{"CENTER_NAME":"EARTH","MEAN_MOTION_DDOT":"0.0000000000000","ECCENTRICITY":"0.00013600","OBJECT_NAME":"STARLINK-2211","BSTAR":"0.00001029500000","ARG_OF_PERICENTER":"87.6657","LAUNCH_DATE":"2021-03-04","EPHEMERIS_TYPE":"0","PERIOD":"95.592","TLE_LINE1":"1 47778U 21017BJ  21322.66611355 -.00000128  00000-0  10295-4 0  9990","REF_FRAME":"TEME","SEMIMAJOR_AXIS":"6925.358","RA_OF_ASC_NODE":"68.8348","MEAN_MOTION":"15.06397008","ELEMENT_SET_NO":"999","OBJECT_ID":"2021-017BJ","INCLINATION":"53.0305","MEAN_ELEMENT_THEORY":"SGP4","PERIAPSIS":"546.281","MEAN_ANOMALY":"272.4487","CLASSIFICATION_TYPE":"U","TLE_LINE2":"2 47778  53.0305  68.8348 0001360  87.6657 272.4487 15.06397008 40802","RCS_SIZE":"LARGE","TIME_SYSTEM":"UTC","SITE":"AFETR","FILE":"3218669","OBJECT_TYPE":"PAYLOAD","MEAN_MOTION_DOT":"-0.00000128","COUNTRY_CODE":"US","EPOCH":"2021-11-18T15:59:12.210720","APOAPSIS":"548.165","DECAY_DATE":null,"GP_ID":"190039488","NORAD_CAT_ID":"47778","REV_AT_EPOCH":"4080"},{"EPOCH":"2021-11-18T08:19:59.249856","DECAY_DATE":null,"APOAPSIS":"545.096","NORAD_CAT_ID":"47779","GP_ID":"190011899","REV_AT_EPOCH":"4076","TIME_SYSTEM":"UTC","SITE":"AFETR","OBJECT_TYPE":"PAYLOAD","FILE":"3218461","MEAN_MOTION_DOT":"0.00043939","COUNTRY_CODE":"US","MEAN_ELEMENT_THEORY":"SGP4","MEAN_ANOMALY":"288.8664","PERIAPSIS":"542.974","CLASSIFICATION_TYPE":"U","RCS_SIZE":"LARGE","TLE_LINE2":"2 47779  53.0565  70.1127 0001533  71.2492 288.8664 15.07437603 40760","MEAN_MOTION_DDOT":"0.0000000000000","CENTER_NAME":"EARTH","BSTAR":"0.00286880000000","OBJECT_NAME":"STARLINK-2212","ECCENTRICITY":"0.00015330","ARG_OF_PERICENTER":"71.2492","EPHEMERIS_TYPE":"0","LAUNCH_DATE":"2021-03-04","SEMIMAJOR_AXIS":"6922.170","TLE_LINE1":"1 47779U 21017BK  21322.34721354  .00043939  00000-0  28688-2 0  9996","PERIOD":"95.526","REF_FRAME":"TEME","MEAN_MOTION":"15.07437603","RA_OF_ASC_NODE":"70.1127","ELEMENT_SET_NO":"999","OBJECT_ID":"2021-017BK","INCLINATION":"53.0565"},{"MEAN_MOTION_DDOT":"0.0000000000000","CENTER_NAME":"EARTH","BSTAR":"-0.00003588200000","ECCENTRICITY":"0.00010990","OBJECT_NAME":"STARLINK-2213","ARG_OF_PERICENTER":"80.1492","LAUNCH_DATE":"2021-03-04","EPHEMERIS_TYPE":"0","SEMIMAJOR_AXIS":"6925.378","REF_FRAME":"TEME","TLE_LINE1":"1 47780U 21017BL  21322.35187463 -.00000816  00000-0 -35882-4 0  9991","PERIOD":"95.593","MEAN_MOTION":"15.06390544","RA_OF_ASC_NODE":"70.1190","ELEMENT_SET_NO":"999","OBJECT_ID":"2021-017BL","INCLINATION":"53.0568","MEAN_ELEMENT_THEORY":"SGP4","PERIAPSIS":"546.481","MEAN_ANOMALY":"279.9621","CLASSIFICATION_TYPE":"U","RCS_SIZE":"LARGE","TLE_LINE2":"2 47780  53.0568  70.1190 0001099  80.1492 279.9621 15.06390544 40799","TIME_SYSTEM":"UTC","SITE":"AFETR","OBJECT_TYPE":"PAYLOAD","FILE":"3218461","MEAN_MOTION_DOT":"-0.00000816","COUNTRY_CODE":"US","EPOCH":"2021-11-18T08:26:41.968032","APOAPSIS":"548.004","DECAY_DATE":null,"NORAD_CAT_ID":"47780","GP_ID":"190011650","REV_AT_EPOCH":"4079"}];
